SES-4                   
1 38087U 12007A   17096.11423111 -.00000199  00000-0  00000-0 0  9993
2 38087   0.0043 241.3656 0002172 131.9806 200.3347  1.00270086 18802
BEIDOU G5               
1 38091U 12008A   17096.93010793  .00000028  00000-0  00000-0 0  9997
2 38091   2.0979  55.1500 0003002 237.0099 296.7198  1.00272773 18809
INTELSAT 22 (IS-22)     
1 38098U 12011A   17096.25881191 -.00000090  00000-0  00000-0 0  9991
2 38098   0.0211  65.3540 0002128 327.4510 327.1917  1.00273421 18168
APSTAR 7                
1 38107U 12013A   17096.94020366 -.00000132  00000-0  00000-0 0  9996
2 38107   0.0308 129.0161 0002465 244.7613 236.5958  1.00271895 18499
YAHSAT 1B               
1 38245U 12016A   17096.32669370  .00000096  00000-0  00000-0 0  9996
2 38245   0.0132 214.6963 0002106 150.7317 354.5578  1.00271498 11959
JCSAT-13                
1 38331U 12023A   17096.11509524 -.00000387  00000-0  00000-0 0  9995
2 38331   0.0161 115.9151 0002904 286.1533 317.9374  1.00270544 17852
VINASAT-2               
1 38332U 12023B   17096.58108225 -.00000360  00000-0  00000-0 0  9991
2 38332   0.0166 135.2962 0002525 255.5652 145.2026  1.00270396 17934
NIMIQ 6                 
1 38342U 12026A   17095.71362815 -.00000204  00000-0  00000-0 0  9993
2 38342   0.0459  81.1557 0002616 290.3653 348.4687  1.00272353 16752
CHINASAT 2A (ZX 2A)     
1 38352U 12028A   17096.95456513 -.00000323  00000-0  00000-0 0  9994
2 38352   0.0460  95.8116 0004924 253.8459 287.6628  1.00271996 17707
INTELSAT 19 (IS-19)     
1 38356U 12030A   17095.99867030 -.00000087  00000-0  00000-0 0  9991
2 38356   0.0214  75.3931 0003221 312.9333 331.6747  1.00272490 16793
ECHOSTAR 17             
1 38551U 12035A   17095.75797142 -.00000106  00000-0  00000-0 0  9995
2 38551   0.0217 199.0499 0001994 178.0224 342.9344  1.00270361 17447
METEOSAT-10 (MSG-3)     
1 38552U 12035B   17095.46231817 -.00000037  00000-0  00000-0 0  9999
2 38552   0.7670  50.0282 0000383 245.3930  64.5591  1.00273876 17532
SES-5                   
1 38652U 12036A   17095.09514455  .00000003  00000-0  00000-0 0  9994
2 38652   0.0355 260.1984 0002271  99.6980 232.9060  1.00270183 17374
TIANLIAN 1-03           
1 38730U 12040A   17096.42917468  .00000041  00000-0  00000-0 0  9997
2 38730   0.0603 255.0519 0002233 144.7693 320.1786  1.00270341 15048
INTELSAT 20 (IS-20)     
1 38740U 12043A   17096.26867112 -.00000055  00000-0  00000-0 0  9999
2 38740   0.0287 176.9600 0000755   3.8924 179.1475  1.00269558 17090
HYLAS 2                 
1 38741U 12043B   17096.37260065  .00000123  00000-0  00000-0 0  9991
2 38741   0.0200 205.0602 0002035 174.8390 340.1087  1.00270001 17095
INTELSAT 21 (IS-21)     
1 38749U 12045A   17095.62191572 -.00000315  00000-0  00000-0 0  9998
2 38749   0.0115 240.3967 0002124 123.2390 356.3497  1.00270285 16874
ASTRA 2F                
1 38778U 12051A   17096.38038682  .00000119  00000-0  00000-0 0  9994
2 38778   0.0539 227.8749 0001959  58.9408  73.1465  1.00270931  7487
GSAT-10                 
1 38779U 12051B   17095.23134016 -.00000195  00000-0  00000-0 0  9991
2 38779   0.0417 108.3530 0002100 288.2154 323.4301  1.00272398 16433
INTELSAT 23 (IS-23)     
1 38867U 12057A   17096.60528880 -.00000315  00000-0  00000-0 0  9997
2 38867   0.0221 248.6389 0001979 109.8810   1.4631  1.00273507 16335
BEIDOU G6               
1 38953U 12059A   17096.98250149 -.00000203  00000-0  10000-3 0  9996
2 38953   1.5110  80.0214 0003779 188.7584   4.3005  1.00268552 16378
LUCH 5B                 
1 38977U 12061A   17096.94016861 -.00000158  00000-0  00000-0 0  9997
2 38977   3.4006  75.0206 0003559 276.7445 165.7948  1.00271198 16507
YAMAL 300K              
1 38978U 12061B   17096.64967737  .00000040  00000-0  00000-0 0  9991
2 38978   0.0395  79.7808 0001303 353.4768 178.6787  1.00271147 15953
STAR ONE C3             
1 38991U 12062A   17096.42643244 -.00000279  00000-0  00000-0 0  9992
2 38991   0.0212 113.4760 0002458 241.4132 278.5108  1.00271682 16178
EUTELSAT 21B            
1 38992U 12062B   17095.40148882  .00000099  00000-0  00000-0 0  9997
2 38992   0.0673  10.1048 0002204  19.2365 330.6550  1.00271879 16179
ECHOSTAR 16             
1 39008U 12065A   17095.63164580 -.00000312  00000-0  00000-0 0  9996
2 39008   0.0241 202.6912 0002107 174.0974 343.2183  1.00270981 16125
CHINASAT 12 (ZX 12)     
1 39017U 12067A   17096.95936366 -.00000237  00000-0  00000-0 0  9999
2 39017   0.0171 124.0369 0003019 244.4441 259.8035  1.00272388 15832
EUTELSAT 70B            
1 39020U 12069A   17096.26334936 -.00000074  00000-0  00000-0 0  9993
2 39020   0.0647  19.7376 0001561   3.4013 336.8517  1.00272394 15838
YAMAL 402               
1 39022U 12070A   17094.12635314  .00000057  00000-0  10000-3 0  9998
2 39022   0.0176 164.3687 0002511 211.1185 277.5058  1.00272100 15895
SKYNET 5D               
1 39034U 12075A   17096.94851757  .00000069  00000-0  00000-0 0  9998
2 39034   0.0701  12.9928 0003999   2.0707 214.5335  1.00272137 15491
MEXSAT 3                
1 39035U 12075B   17095.77927921 -.00000056  00000-0  00000-0 0  9993
2 39035   0.0388 129.4654 0001829 244.2475 346.2758  1.00272798 15490
TDRS 11                 
1 39070U 13004A   17095.84828441  .00000059  00000-0  00000-0 0  9992
2 39070   5.4887 328.7265 0010157 301.2036  58.5440  1.00274171 13019
AMAZONAS 3              
1 39078U 13006A   17095.63014696 -.00000313  00000-0  00000-0 0  9992
2 39078   0.0228 197.1864 0001487 148.8805  13.9129  1.00272279 11200
AZERSPACE 1             
1 39079U 13006B   17096.33117030  .00000102  00000-0  00000-0 0  9992
2 39079   0.0244 106.5219 0001999 276.2460 337.2245  1.00271965 15136
EUTELSAT 117 WEST A     
1 39122U 13012A   17095.78482990 -.00000043  00000-0  00000-0 0  9991
2 39122   0.0357  86.4924 0002642 294.1250 339.3770  1.00271813 14778
ANIK G1                 
1 39127U 13014A   17095.75845181 -.00000105  00000-0  00000-0 0  9999
2 39127   0.0371 267.5781 0002331  67.5387  24.8557  1.00272222 14583
CHINASAT 11 (ZX 11)     
1 39157U 13020A   17094.50521067 -.00000320  00000-0  00000-0 0  9994
2 39157   0.0098 201.4554 0002722 102.5846 168.8243  1.00269710 14456
EUTELSAT 7B             
1 39163U 13022A   17095.44193421  .00000017  00000-0  00000-0 0  9998
2 39163   0.0251  41.3313 0005720 327.1036 351.5747  1.00270647 14311
SES-6                   
1 39172U 13026A   17096.41854736 -.00000292  00000-0  00000-0 0  9999
2 39172   0.0521  56.8555 0002129 321.9714 286.2333  1.00271856 14054
IRNSS-1A                
1 39199U 13034A   17094.63336331  .00000092  00000-0  00000-0 0  9992
2 39199  28.6984 116.3031 0020823 188.5578 171.4775  1.00278192 13671
ALPHASAT                
1 39215U 13038A   17095.47523190  .00000109  00000-0  00000-0 0  9998
2 39215   1.6372  29.8212 0002293 337.1782  22.8802  1.00273225 13583
INSAT-3D                
1 39216U 13038B   17096.23105276 -.00000187  00000-0  00000-0 0  9992
2 39216   0.0891  97.0502 0001555 255.4354   7.4957  1.00271443 13444
EUTELSAT 25B            
1 39233U 13044A   17096.38792242  .00000112  00000-0  00000-0 0  9996
2 39233   0.0525  13.8039 0001883 346.1168   0.0628  1.00269836 13226
GSAT-7                  
1 39234U 13044B   17096.25351017 -.00000108  00000-0  00000-0 0  9990
2 39234   0.0668 103.5432 0003233 206.9911  49.4213  1.00272237 11683
AMOS-4                  
1 39237U 13045A   17096.27847473 -.00000024  00000-0  00000-0 0  9999
2 39237   0.0173 212.4923 0002004 142.8799   4.6095  1.00271998 13281
ASTRA 2E                
1 39285U 13056A   17095.38223339  .00000120  00000-0  00000-0 0  9990
2 39285   0.0749  45.7826 0002276 332.6431 341.5666  1.00275128 12785
SIRIUS FM-6             
1 39360U 13058A   17095.78299568 -.00000047  00000-0  00000-0 0  9996
2 39360   0.0219 104.7394 0000778  74.9631 180.2813  1.00271112 12668
RADUGA-1M 3             
1 39375U 13062A   17096.93676030 -.00000069  00000-0  00000-0 0  9992
2 39375   0.0095 216.8134 0002024 178.4384 207.3683  1.00271670 12456
SES-8                   
1 39460U 13071A   17096.19538997 -.00000301  00000-0  00000-0 0  9993
2 39460   0.0300 262.5644 0002370 125.6230 331.8089  1.00273492 10840
INMARSAT 5-F1           
1 39476U 13073A   17096.72209660 -.00000003  00000-0  00000-0 0  9992
2 39476   0.0224 190.7537 0000426  94.2442 232.7436  1.00270536 11922
TKSAT-1 (TUPAC KATARI)  
1 39481U 13075A   17096.55605093 -.00000225  00000-0  00000-0 0  9997
2 39481   0.0562  59.6522 0002913 292.9790 315.3697  1.00271996 11913
EXPRESS-AM5             
1 39487U 13077A   17096.65773985 -.00000311  00000-0  00000-0 0  9998
2 39487   0.0326 310.8138 0000829  51.1540 209.9522  1.00270520 12697
GSAT-14                 
1 39498U 14001A   17096.25370846 -.00000108  00000-0  00000-0 0  9997
2 39498   0.0238 215.6734 0004174 186.1931 318.1489  1.00272060 11779
THAICOM 6               
1 39500U 14002A   17096.75316515 -.00000152  00000-0  00000-0 0  9999
2 39500   0.0616 124.6669 0001713 279.1572 141.0214  1.00272982 11771
TDRS 12                 
1 39504U 14004A   17095.50903208 -.00000304  00000-0  00000-0 0  9997
2 39504   6.0557 336.1772 0003326  37.5099 322.3911  1.00264666 10599
ABS-2                   
1 39508U 14006A   17096.25097227 -.00000117  00000-0  00000-0 0  9993
2 39508   0.0431  62.1544 0003343 314.3785 343.4615  1.00272165 11643
ATHENA-FIDUS            
1 39509U 14006B   17096.35382353  .00000123  00000-0  00000-0 0  9998
2 39509   0.0152 212.2154 0001680 174.8029 332.9904  1.00272051 11403
TURKSAT 4A              
1 39522U 14007A   17096.34210280  .00000115  00000-0  00000-0 0  9993
2 39522   0.0491 270.2423 0003293  59.8311  29.8914  1.00274175 11531
EXPRESS-AT1             
1 39612U 14010A   17096.92555804  .00000048  00000-0  00000-0 0  9990
2 39612   0.0305 327.7361 0000218  99.9739 156.8652  1.00271964 11372
